{"type": "FeatureCollection", "features": [ {"type": "Feature", "properties": {"norad_id": 34117, "name": "COSMOS 2251 DEB", "group": "cosmos-2251-debris", "lat": -47.67784215048123, "lon": -34.57907861718551, "alt_km": 778.2503925715591, "timestamp": "2025-12-12T18:57:44.522899+00:00", "meta": {"OBJECT_NAME": "COSMOS 2251 DEB", "OBJECT_ID": "1993-036KN", "EPOCH": "2025-12-11T23:11:14.007840", "MEAN_MOTION": 14.40006217, "ECCENTRICITY": 0.0054508, "INCLINATION": 74.0405, "RA_OF_ASC_NODE": 345.2579, "ARG_OF_PERICENTER": 61.8578, "MEAN_ANOMALY": 298.807, "EPHEMERIS_TYPE": 0, "CLASSIFICATION_TYPE": "U", "NORAD_CAT_ID": 34117, "ELEMENT_SET_NO": 999, "REV_AT_EPOCH": 88112, "BSTAR": 0.0010312, "MEAN_MOTION_DOT": 3.281e-05, "MEAN_MOTION_DDOT": 0}, "tle": {"line1": "1 34117U 93036KN  25345.96613435  .00003281  00000+0  10312-2 0  9995", "line2": "2 34117  74.0405 345.2579 0054508  61.8578 298.8070 14.40006217881129"}}, "geometry": {"type": "Point", "coordinates": [-34.57907861718551, -47.67784215048123]}}, {"type": "Feature", "properties": {"norad_id": 34118, "name": "COSMOS 2251 DEB", "group": "cosmos-2251-debris", "lat": 29.09146535749371, "lon": -101.58048410952192, "alt_km": 556.4894858156049, "timestamp": "2025-12-12T18:57:44.522909+00:00", "meta": {"OBJECT_NAME": "COSMOS 2251 DEB", "OBJECT_ID": "1993-036KP", "EPOCH": "2025-12-11T20:37:53.753088", "MEAN_MOTION": 14.93897498, "ECCENTRICITY": 0.0059871, "INCLINATION": 73.9524, "RA_OF_ASC_NODE": 251.0857, "ARG_OF_PERICENTER": 81.6977, "MEAN_ANOMALY": 347.3453, "EPHEMERIS_TYPE": 0, "CLASSIFICATION_TYPE": "U", "NORAD_CAT_ID": 34118, "ELEMENT_SET_NO": 999, "REV_AT_EPOCH": 89163, "BSTAR": 0.0026512, "MEAN_MOTION_DOT": 0.00029291, "MEAN_MOTION_DDOT": 0}, "tle": {"line1": "1 34118U 93036KP  25345.85964992  .00029291  00000+0  26512-2 0  9999", "line2": "2 34118  73.9524 251.0857 0059871  81.6977 347.3453 14.93897498891633"}}, "geometry": {"type": "Point", "coordinates": [-101.58048410952192, 29.09146535749371]}}, {"type": "Feature", "properties": {"norad_id": 34120, "name": "COSMOS 2251 DEB", "group": "cosmos-2251-debris", "lat": 58.65081277075873, "lon": -115.74958374091513, "alt_km": 766.8336780961527, "timestamp": "2025-12-12T18:57:44.522919+00:00", "meta": {"OBJECT_NAME": "COSMOS 2251 DEB", "OBJECT_ID": "1993-036KR", "EPOCH": "2025-12-12T02:12:39.792672", "MEAN_MOTION": 13.98682417, "ECCENTRICITY": 0.01819321, "INCLINATION": 73.9913, "RA_OF_ASC_NODE": 217.3425, "ARG_OF_PERICENTER": 45.1678, "MEAN_ANOMALY": 103.7932, "EPHEMERIS_TYPE": 0, "CLASSIFICATION_TYPE": "U", "NORAD_CAT_ID": 34120, "ELEMENT_SET_NO": 999, "REV_AT_EPOCH": 85971, "BSTAR": 0.0004839817, "MEAN_MOTION_DOT": 7.78e-06, "MEAN_MOTION_DDOT": 0}, "tle": {"line1": "1 34120U 93036KR  25346.09212723  .00000778  00000+0  48398-3 0  9993", "line2": "2 34120  73.9913 217.3425 0181932  45.1678 103.7932 13.98682417859717"}}, "geometry": {"type": "Point", "coordinates": [-115.74958374091513, 58.65081277075873]}}, {"type": "Feature", "properties": {"norad_id": 34121, "name": "COSMOS 2251 DEB", "group": "cosmos-2251-debris", "lat": -73.84605267649941, "lon": 14.75245029008116, "alt_km": 776.4810953308215, "timestamp": "2025-12-12T18:57:44.522929+00:00", "meta": {"OBJECT_NAME": "COSMOS 2251 DEB", "OBJECT_ID": "1993-036KS", "EPOCH": "2025-12-12T07:25:55.380000", "MEAN_MOTION": 13.91927211, "ECCENTRICITY": 0.02402383, "INCLINATION": 73.9925, "RA_OF_ASC_NODE": 97.9072, "ARG_OF_PERICENTER": 303.4441, "MEAN_ANOMALY": 83.579, "EPHEMERIS_TYPE": 0, "CLASSIFICATION_TYPE": "U", "NORAD_CAT_ID": 34121, "ELEMENT_SET_NO": 999, "REV_AT_EPOCH": 85119, "BSTAR": 0.0017645388, "MEAN_MOTION_DOT": 2.823e-05, "MEAN_MOTION_DDOT": 0}, "tle": {"line1": "1 34121U 93036KS  25346.30966875  .00002823  00000+0  17645-2 0  9995", "line2": "2 34121  73.9925  97.9072 0240238 303.4441  83.5790 13.91927211851192"}}, "geometry": {"type": "Point", "coordinates": [14.75245029008116, -73.84605267649941]}}, {"type": "Feature", "properties": {"norad_id": 34122, "name": "COSMOS 2251 DEB", "group": "cosmos-2251-debris", "lat": 2.527604622106006, "lon": -62.18600343628002, "alt_km": 735.6593319426438, "timestamp": "2025-12-12T18:57:44.522939+00:00", "meta": {"OBJECT_NAME": "COSMOS 2251 DEB", "OBJECT_ID": "1993-036KT", "EPOCH": "2025-12-11T16:00:10.116864", "MEAN_MOTION": 14.65026935, "ECCENTRICITY": 0.00842746, "INCLINATION": 74.0358, "RA_OF_ASC_NODE": 120.6982, "ARG_OF_PERICENTER": 17.8752, "MEAN_ANOMALY": 357.0036, "EPHEMERIS_TYPE": 0, "CLASSIFICATION_TYPE": "U", "NORAD_CAT_ID": 34122, "ELEMENT_SET_NO": 999, "REV_AT_EPOCH": 88669, "BSTAR": 0.0019073278, "MEAN_MOTION_DOT": 0.0001076, "MEAN_MOTION_DDOT": 0}, "tle": {"line1": "1 34122U 93036KT  25345.66678376  .00010760  00000+0  19073-2 0  9996", "line2": "2 34122  74.0358 120.6982 0084274  17.8752 357.0036 14.65026935886696"}}, "geometry": {"type": "Point", "coordinates": [-62.18600343628002, 2.527604622106006]}}, {"type": "Feature", "properties": {"norad_id": 34127, "name": "COSMOS 2251 DEB", "group": "cosmos-2251-debris", "lat": 72.01011103308628, "lon": 104.60430790485135, "alt_km": 857.7362937383368, "timestamp": "2025-12-12T18:57:44.522949+00:00", "meta": {"OBJECT_NAME": "COSMOS 2251 DEB", "OBJECT_ID": "1993-036KY", "EPOCH": "2025-12-12T05:25:32.729664", "MEAN_MOTION": 14.31538178, "ECCENTRICITY": 0.0114934, "INCLINATION": 74.1792, "RA_OF_ASC_NODE": 44.7917, "ARG_OF_PERICENTER": 245.0245, "MEAN_ANOMALY": 171.1744, "EPHEMERIS_TYPE": 0, "CLASSIFICATION_TYPE": "U", "NORAD_CAT_ID": 34127, "ELEMENT_SET_NO": 999, "REV_AT_EPOCH": 86764, "BSTAR": 0.002888484, "MEAN_MOTION_DOT": 8.242e-05, "MEAN_MOTION_DDOT": 0}, "tle": {"line1": "1 34127U 93036KY  25346.22607326  .00008242  00000+0  28885-2 0  9994", "line2": "2 34127  74.1792  44.7917 0114934 245.0245 171.1744 14.31538178867642"}}, "geometry": {"type": "Point", "coordinates": [104.60430790485135, 72.01011103308628]}}, {"type": "Feature", "properties": {"norad_id": 34128, "name": "COSMOS 2251 DEB", "group": "cosmos-2251-debris", "lat": -56.36409055679256, "lon": -88.93028990804515, "alt_km": 575.8593576129833, "timestamp": "2025-12-12T18:57:44.522959+00:00", "meta": {"OBJECT_NAME": "COSMOS 2251 DEB", "OBJECT_ID": "1993-036KZ", "EPOCH": "2025-12-12T06:58:38.581248", "MEAN_MOTION": 15.01122722, "ECCENTRICITY": 0.00260972, "INCLINATION": 73.9991, "RA_OF_ASC_NODE": 297.6397, "ARG_OF_PERICENTER": 50.058, "MEAN_ANOMALY": 72.7494, "EPHEMERIS_TYPE": 0, "CLASSIFICATION_TYPE": "U", "NORAD_CAT_ID": 34128, "ELEMENT_SET_NO": 999, "REV_AT_EPOCH": 89160, "BSTAR": 0.0027353301, "MEAN_MOTION_DOT": 0.0003543, "MEAN_MOTION_DDOT": 0}, "tle": {"line1": "1 34128U 93036KZ  25346.29072432  .00035430  00000+0  27353-2 0  9994", "line2": "2 34128  73.9991 297.6397 0026097  50.0580  72.7494 15.01122722891603"}}, "geometry": {"type": "Point", "coordinates": [-88.93028990804515, -56.36409055679256]}}, {"type": "Feature", "properties": {"norad_id": 34129, "name": "COSMOS 2251 DEB", "group": "cosmos-2251-debris", "lat": -31.802855490336185, "lon": 169.65322700894896, "alt_km": 668.9567805321967, "timestamp": "2025-12-12T18:57:44.522969+00:00", "meta": {"OBJECT_NAME": "COSMOS 2251 DEB", "OBJECT_ID": "1993-036LA", "EPOCH": "2025-12-12T06:36:46.821888", "MEAN_MOTION": 14.75724159, "ECCENTRICITY": 0.00329062, "INCLINATION": 74.0356, "RA_OF_ASC_NODE": 340.4347, "ARG_OF_PERICENTER": 62.0913, "MEAN_ANOMALY": 298.3587, "EPHEMERIS_TYPE": 0, "CLASSIFICATION_TYPE": "U", "NORAD_CAT_ID": 34129, "ELEMENT_SET_NO": 999, "REV_AT_EPOCH": 61291, "BSTAR": 0.0021170437, "MEAN_MOTION_DOT": 0.00014612, "MEAN_MOTION_DDOT": 0}, "tle": {"line1": "1 34129U 93036LA  25346.27554192  .00014612  00000+0  21170-2 0  9991", "line2": "2 34129  74.0356 340.4347 0032906  62.0913 298.3587 14.75724159612918"}}, "geometry": {"type": "Point", "coordinates": [169.65322700894896, -31.802855490336185]}}, {"type": "Feature", "properties": {"norad_id": 34136, "name": "COSMOS 2251 DEB", "group": "cosmos-2251-debris", "lat": 7.451814085615003, "lon": 44.681425976688864, "alt_km": 686.2352438756852, "timestamp": "2025-12-12T18:57:44.522979+00:00", "meta": {"OBJECT_NAME": "COSMOS 2251 DEB", "OBJECT_ID": "1993-036LH", "EPOCH": "2025-12-12T06:14:00.321216", "MEAN_MOTION": 14.80077678, "ECCENTRICITY": 0.00858161, "INCLINATION": 74.021, "RA_OF_ASC_NODE": 43.579, "ARG_OF_PERICENTER": 166.6732, "MEAN_ANOMALY": 256.7734, "EPHEMERIS_TYPE": 0, "CLASSIFICATION_TYPE": "U", "NORAD_CAT_ID": 34136, "ELEMENT_SET_NO": 999, "REV_AT_EPOCH": 90003, "BSTAR": 0.000746903, "MEAN_MOTION_DOT": 5.997e-05, "MEAN_MOTION_DDOT": 0}, "tle": {"line1": "1 34136U 93036LH  25346.25972594  .00005997  00000+0  74690-3 0  9999", "line2": "2 34136  74.0210  43.5790 0085816 166.6732 256.7734 14.80077678900034"}}, "geometry": {"type": "Point", "coordinates": [44.681425976688864, 7.451814085615003]}}, {"type": "Feature", "properties": {"norad_id": 34139, "name": "COSMOS 2251 DEB", "group": "cosmos-2251-debris", "lat": 73.54571672123313, "lon": -30.20470093516355, "alt_km": 704.3540945515833, "timestamp": "2025-12-12T18:57:44.522989+00:00", "meta": {"OBJECT_NAME": "COSMOS 2251 DEB", "OBJECT_ID": "1993-036LL", "EPOCH": "2025-12-12T04:27:22.339872", "MEAN_MOTION": 14.59054427, "ECCENTRICITY": 0.00425713, "INCLINATION": 74.0306, "RA_OF_ASC_NODE": 255.1192, "ARG_OF_PERICENTER": 326.0171, "MEAN_ANOMALY": 186.0941, "EPHEMERIS_TYPE": 0, "CLASSIFICATION_TYPE": "U", "NORAD_CAT_ID": 34139, "ELEMENT_SET_NO": 999, "REV_AT_EPOCH": 88141, "BSTAR": 0.0021786108, "MEAN_MOTION_DOT": 0.00010357, "MEAN_MOTION_DDOT": 0}, "tle": {"line1": "1 34139U 93036LL  25346.18567523  .00010357  00000+0  21786-2 0  9999", "line2": "2 34139  74.0306 255.1192 0042571 326.0171 186.0941 14.59054427881418"}}, "geometry": {"type": "Point", "coordinates": [-30.20470093516355, 73.54571672123313]}}]}